NORAD_CAT_ID,OBJECT_NAME,OBJECT_TYPE,EPOCH,MEAN_MOTION,ECCENTRICITY,INCLINATION,RA_OF_ASC_NODE,ARG_OF_PERICENTER,MEAN_ANOMALY,BSTAR,MEAN_MOTION_DOT,MEAN_MOTION_DDOT,TLE_LINE0,TLE_LINE1,TLE_LINE2,SEMIMAJOR_AXIS,PERIOD,APOGEE,PERIGEE,DECAYED
54096.0,STARLINK-5188,PAYLOAD,2023-10-30 05:09:48,15.08849209,0.0001271,53.2182,241.2206,95.2805,264.8332,0.00028398,4.236e-05,0.0,0 STARLINK-5188,1 54096U 22136AX  23303.21514737  .00004236  00000-0  28398-3 0  9997,2 54096  53.2182 241.2206 0001271  95.2805 264.8332 15.08849209 57404,6917.852,95.437,540.596,538.838,0.0
54096.0,STARLINK-5188,PAYLOAD,2023-10-30 13:06:44,15.088362,0.0001895,53.2191,239.7328,84.9872,275.1336,-0.00015088,-2.688e-05,0.0,0 STARLINK-5188,1 54096U 22136AX  23303.54635408 -.00002688  00000-0 -15088-3 0  9995,2 54096  53.2191 239.7328 0001895  84.9872 275.1336 15.08836200 57453,6917.892,95.438,541.068,538.446,0.0
54096.0,STARLINK-5188,PAYLOAD,2023-10-31 12:57:32,15.08837773,0.0001501,53.2178,235.2751,90.0052,270.1112,0.00023258,3.415e-05,0.0,0 STARLINK-5188,1 54096U 22136AX  23304.53995820  .00003415  00000-0  23258-3 0  9997,2 54096  53.2178 235.2751 0001501  90.0052 270.1112 15.08837773 57139,6917.887,95.438,540.791,538.714,0.0
54096.0,STARLINK-5188,PAYLOAD,2023-10-31 19:19:05,15.08838443,0.0001595,53.218,234.0866,84.3021,275.8153,0.00024801,3.661e-05,0.0,0 STARLINK-5188,1 54096U 22136AX  23304.80491974  .00003661  00000-0  24801-3 0  9996,2 54096  53.2180 234.0866 0001595  84.3021 275.8153 15.08838443 57649,6917.885,95.438,540.854,538.647,0.0
54096.0,STARLINK-5188,PAYLOAD,2023-11-01 04:51:23,15.08854457,0.0001531,53.2175,232.3,94.4854,265.6313,0.00055681,8.588e-05,0.0,0 STARLINK-5188,1 54096U 22136AX  23305.20235457  .00008588  00000-0  55681-3 0  9996,2 54096  53.2175 232.3000 0001531  94.4854 265.6313 15.08854457 57705,6917.836,95.437,540.76,538.642,0.0
54096.0,STARLINK-5188,PAYLOAD,2023-11-01 22:20:38,15.08849346,0.0001311,53.2173,229.0339,79.6615,280.4525,0.00036196,5.479e-05,0.0,0 STARLINK-5188,1 54096U 22136AX  23305.93099610  .00005479  00000-0  36196-3 0  9991,2 54096  53.2173 229.0339 0001311  79.6615 280.4525 15.08849346 57348,6917.852,95.437,540.624,538.81,0.0
54096.0,STARLINK-5188,PAYLOAD,2023-11-02 01:31:24,15.08860763,0.0001384,53.2168,228.4379,96.6583,263.4567,0.00078156,0.00012179,0.0,0 STARLINK-5188,1 54096U 22136AX  23306.06347288  .00012179  00000-0  78156-3 0  9990,2 54096  53.2168 228.4379 0001384  96.6583 263.4567 15.08860763 57839,6917.817,95.436,540.639,538.724,0.0
54096.0,STARLINK-5188,PAYLOAD,2023-11-02 22:11:25,15.08847669,0.0001413,53.218,224.5716,104.5071,255.6078,0.00062473,9.671e-05,0.0,0 STARLINK-5188,1 54096U 22136AX  23306.92459505  .00009671  00000-0  62473-3 0  9999,2 54096  53.2180 224.5716 0001413 104.5071 255.6078 15.08847669 57491,6917.857,95.437,540.699,538.744,0.0
54096.0,STARLINK-5188,PAYLOAD,2023-11-03 04:32:57,15.08852015,0.0001242,53.216,223.3793,86.1388,273.9746,0.0005959,9.212e-05,0.0,0 STARLINK-5188,1 54096U 22136AX  23307.18955288  .00009212  00000-0  59590-3 0  9994,2 54096  53.2160 223.3793 0001242  86.1388 273.9746 15.08852015 58001,6917.844,95.437,540.568,538.849,0.0
54096.0,STARLINK-5188,PAYLOAD,2023-11-03 18:51:25,15.08832645,0.000108,53.217,220.7045,98.483,261.6284,0.00039675,6.031e-05,0.0,0 STARLINK-5188,1 54096U 22136AX  23307.78571701  .00006031  00000-0  39675-3 0  9992,2 54096  53.2170 220.7045 0001080  98.4830 261.6284 15.08832645 58098,6917.903,95.438,540.515,539.021,0.0
54096.0,STARLINK-5188,PAYLOAD,2023-11-03 22:02:12,15.08841466,0.0001368,53.217,220.109,102.0336,258.081,0.00033286,5.014e-05,0.0,0 STARLINK-5188,1 54096U 22136AX  23307.91819502  .00005014  00000-0  33286-3 0  9993,2 54096  53.2170 220.1090 0001368 102.0336 258.0810 15.08841466 57640,6917.876,95.437,540.687,538.795,0.0
54096.0,STARLINK-5188,PAYLOAD,2023-11-04 01:12:58,15.0884907,0.0001371,53.2166,219.516,103.4506,256.6639,0.0010677,0.00016749,0.0,0 STARLINK-5188,1 54096U 22136AX  23308.05067543  .00016749  00000-0  10677-2 0  9994,2 54096  53.2166 219.5160 0001371 103.4506 256.6639 15.08849070 58130,6917.853,95.437,540.666,538.769,0.0
54096.0,STARLINK-5188,PAYLOAD,2023-11-04 10:45:17,15.08845615,0.0001331,53.2159,217.7315,95.8551,264.2593,0.00037997,5.765e-05,0.0,0 STARLINK-5188,1 54096U 22136AX  23308.44811368  .00005765  00000-0  37997-3 0  9990,2 54096  53.2159 217.7315 0001331  95.8551 264.2593 15.08845615 58195,6917.863,95.437,540.649,538.807,0.0
54096.0,STARLINK-5188,PAYLOAD,2023-11-04 21:52:59,15.08832436,0.0001339,53.2176,215.6485,85.9159,274.1986,1.4148e-05,-6.3e-07,0.0,0 STARLINK-5188,1 54096U 22136AX  23308.91179890 -.00000063  00000-0  14148-4 0  9990,2 54096  53.2176 215.6485 0001339  85.9159 274.1986 15.08832436 57799,6917.904,95.438,540.695,538.842,0.0
54096.0,STARLINK-5188,PAYLOAD,2023-11-05 10:36:04,15.08862857,0.0001463,53.217,213.2698,82.604,277.5118,0.0014328,0.00022603,0.0,0 STARLINK-5188,1 54096U 22136AX  23309.44171531  .00022603  00000-0  14328-2 0  9994,2 54096  53.2170 213.2698 0001463  82.6040 277.5118 15.08862857 57877,6917.811,95.436,540.688,538.663,0.0
54096.0,STARLINK-5188,PAYLOAD,2023-11-05 21:43:45,15.08876536,0.0001151,53.2158,211.1906,92.4205,267.6919,0.0014459,0.00022821,0.0,0 STARLINK-5188,1 54096U 22136AX  23309.90538638  .00022821  00000-0  14459-2 0  9997,2 54096  53.2158 211.1906 0001151  92.4205 267.6919 15.08876536 57944,6917.769,95.435,540.43,538.837,0.0
54096.0,STARLINK-5188,PAYLOAD,2023-11-06 02:29:54,15.08894111,0.0001375,53.2159,210.2971,86.6136,273.5013,0.0015942,0.00025212,0.0,0 STARLINK-5188,1 54096U 22136AX  23310.10409938  .00025212  00000-0  15942-2 0  9996,2 54096  53.2159 210.2971 0001375  86.6136 273.5013 15.08894111 58449,6917.715,95.434,540.531,538.629,0.0
54096.0,STARLINK-5188,PAYLOAD,2023-11-06 10:26:50,15.08846621,0.0001451,53.2147,208.8109,101.8033,258.3122,-0.0002538,-4.326e-05,0.0,0 STARLINK-5188,1 54096U 22136AX  23310.43530538 -.00004326  00000-0 -25380-3 0  9996,2 54096  53.2147 208.8109 0001451 101.8033 258.3122 15.08846621 58493,6917.86,95.437,540.729,538.721,0.0
54096.0,STARLINK-5188,PAYLOAD,2023-11-06 21:34:33,15.08807251,8.69e-05,53.2176,206.7305,159.2747,200.828,-0.00089083,-0.00014424,0.0,0 STARLINK-5188,1 54096U 22136AX  23310.89899373 -.00014424  00000-0 -89083-3 0  9991,2 54096  53.2176 206.7305 0000869 159.2747 200.8280 15.08807251 58090,6917.98,95.44,540.447,539.244,0.0
54096.0,STARLINK-5188,PAYLOAD,2023-11-07 02:20:42,15.08842388,0.0001269,53.2159,205.8364,109.6359,250.477,0.00091311,0.00014275,0.0,0 STARLINK-5188,1 54096U 22136AX  23311.09771430  .00014275  00000-0  91311-3 0  9996,2 54096  53.2159 205.8364 0001269 109.6359 250.4770 15.08842388 58599,6917.873,95.437,540.616,538.86,0.0
54096.0,STARLINK-5188,PAYLOAD,2023-11-07 10:17:39,15.08822267,0.0001704,53.2157,204.3494,97.7607,262.3579,0.00075876,0.00011802,0.0,0 STARLINK-5188,1 54096U 22136AX  23311.42892598  .00011802  00000-0  75876-3 0  9993,2 54096  53.2157 204.3494 0001704  97.7607 262.3579 15.08822267 58641,6917.935,95.439,540.978,538.621,0.0
54096.0,STARLINK-5188,PAYLOAD,2023-11-08 02:11:31,15.0883002,0.0001191,53.2161,201.3758,110.4401,249.6719,0.00054893,8.457e-05,0.0,0 STARLINK-5188,1 54096U 22136AX  23312.09133178  .00008457  00000-0  54893-3 0  9997,2 54096  53.2161 201.3758 0001191 110.4401 249.6719 15.08830020 58742,6917.911,95.438,540.6,538.952,0.0
54096.0,STARLINK-5188,PAYLOAD,2023-11-08 22:51:31,15.08844817,6.34e-05,53.2171,197.5102,102.588,257.5183,0.00074401,0.00011574,0.0,0 STARLINK-5188,1 54096U 22136AX  23312.95245237  .00011574  00000-0  74401-3 0  9993,2 54096  53.2171 197.5102 0000634 102.5880 257.5183 15.08844817 58401,6917.866,95.437,540.169,539.292,0.0
54096.0,STARLINK-5188,PAYLOAD,2023-11-09 19:31:32,15.08855337,0.0001023,53.2168,193.6479,91.1278,268.9831,0.00037389,5.67e-05,0.0,0 STARLINK-5188,1 54096U 22136AX  23313.81356884  .00005670  00000-0  37389-3 0  9994,2 54096  53.2168 193.6479 0001023  91.1278 268.9831 15.08855337 59000,6917.834,95.437,540.406,538.991,0.0
54096.0,STARLINK-5188,PAYLOAD,2023-11-09 22:42:18,15.08854842,9.67e-05,53.2167,193.0516,86.1725,273.9378,0.00047629,7.303e-05,0.0,0 STARLINK-5188,1 54096U 22136AX  23313.94604802  .00007303  00000-0  47629-3 0  9997,2 54096  53.2167 193.0516 0000967  86.1725 273.9378 15.08854842 58553,6917.835,95.437,540.369,539.031,0.0
54096.0,STARLINK-5188,PAYLOAD,2023-11-10 01:53:04,15.08858039,0.0001098,53.2161,192.4544,90.0971,270.0147,0.00052682,8.11e-05,0.0,0 STARLINK-5188,1 54096U 22136AX  23314.07852616  .00008110  00000-0  52682-3 0  9992,2 54096  53.2161 192.4544 0001098  90.0971 270.0147 15.08858039 58570,6917.825,95.436,540.45,538.931,0.0
54096.0,STARLINK-5188,PAYLOAD,2023-11-10 19:22:19,15.08845667,0.0001325,53.2169,189.1791,85.6805,274.4339,0.000302,4.522e-05,0.0,0 STARLINK-5188,1 54096U 22136AX  23314.80716699  .00004522  00000-0  30200-3 0  9998,2 54096  53.2169 189.1791 0001325  85.6805 274.4339 15.08845667 59153,6917.863,95.437,540.645,538.811,0.0
54096.0,STARLINK-5188,PAYLOAD,2023-11-10 22:33:05,15.08846042,0.0001286,53.2168,188.5894,92.4455,267.6684,0.00031042,4.657e-05,0.0,0 STARLINK-5188,1 54096U 22136AX  23314.93964671  .00004657  00000-0  31042-3 0  9991,2 54096  53.2168 188.5894 0001286  92.4455 267.6684 15.08846042 58707,6917.862,95.437,540.617,538.837,0.0
54096.0,STARLINK-5188,PAYLOAD,2023-11-11 19:13:06,15.08842674,0.0001374,53.2162,184.7245,92.2473,267.8677,0.00012079,1.635e-05,0.0,0 STARLINK-5188,1 54096U 22136AX  23315.80076890  .00001635  00000-0  12079-3 0  9997,2 54096  53.2162 184.7245 0001374  92.2473 267.8677 15.08842674 59303,6917.872,95.437,540.688,538.787,0.0
54096.0,STARLINK-5188,PAYLOAD,2023-11-11 22:23:52,15.08843269,0.0001318,53.2158,184.1303,92.1439,267.9704,7.6535e-05,9.3e-06,0.0,0 STARLINK-5188,1 54096U 22136AX  23315.93324791  .00000930  00000-0  76535-4 0  9992,2 54096  53.2158 184.1303 0001318  92.1439 267.9704 15.08843269 58858,6917.87,95.437,540.647,538.824,0.0
